[{"OBJECT_NAME":"STARLINK-36492","OBJECT_ID":"2026-002AD","EPOCH":"2026-03-09T10:07:13.094112","MEAN_MOTION":15.27577988,"ECCENTRICITY":5.377e-5,"INCLINATION":43.0032,"RA_OF_ASC_NODE":327.1487,"ARG_OF_PERICENTER":0.4165,"MEAN_ANOMALY":359.6687,"EPHEMERIS_TYPE":0,"CLASSIFICATION_TYPE":"U","NORAD_CAT_ID":67332,"ELEMENT_SET_NO":999,"REV_AT_EPOCH":1119,"BSTAR":0.00089136439,"MEAN_MOTION_DOT":0.00024346,"MEAN_MOTION_DDOT":0},{"OBJECT_NAME":"SIMSAT 1","OBJECT_ID":"2000-026A","EPOCH":"2026-03-09T17:22:54.646176","MEAN_MOTION":15.27666538,"ECCENTRICITY":0.00084816,"INCLINATION":86.3501,"RA_OF_ASC_NODE":180.5413,"ARG_OF_PERICENTER":14.8337,"MEAN_ANOMALY":345.3157,"EPHEMERIS_TYPE":0,"CLASSIFICATION_TYPE":"U","NORAD_CAT_ID":26365,"ELEMENT_SET_NO":999,"REV_AT_EPOCH":42720,"BSTAR":0.00013499313,"MEAN_MOTION_DOT":3.69e-5,"MEAN_MOTION_DDOT":0}]
